AMC-1 (GE-1)            
1 24315U 96054A   23014.51927781  .00000082  00000+0  00000+0 0  9997
2 24315   6.1172  71.3416 0003374 228.6420 229.7584  1.00270518 96496
AMC-3 (GE-3)            
1 24936U 97050A   23014.25157660 -.00000243  00000+0  00000+0 0  9995
2 24936   5.0588  77.4893 0003146 224.3270 190.1895  1.00270484 92914
ASTRA 1G                
1 25071U 97076A   23013.85466064  .00000131  00000+0  00000+0 0  9995
2 25071   6.7243  66.6521 0003836 230.1056 143.3858  1.00274678 92000
ASTRA 2A                
1 25462U 98050A   23014.14818368  .00000088  00000+0  00000+0 0  9994
2 25462   3.9294  83.3113 0003242 209.2931 291.2731  1.00271413 89207
AMC-4 (GE-4)            
1 25954U 99060A   23013.67955236  .00000107  00000+0  00000+0 0  9997
2 25954   2.0463  89.7051 0003133 219.0703 273.8425  1.00272747 31010
NSS-11 (AAP-1)          
1 26554U 00059A   23014.10006863  .00000046  00000+0  00000+0 0  9998
2 26554   0.0301 310.0031 0002742 356.3492  18.9740  1.00272819 81630
AMC-6 (GE-6)            
1 26580U 00067A   23013.69077167  .00000125  00000+0  00000+0 0  9992
2 26580   0.0423 289.2844 0002463  11.4101 281.8684  1.00273257 81364
ASTRA 2D                
1 26638U 00081A   23012.27667747  .00000143  00000+0  00000+0 0  9994
2 26638   7.7344  58.8691 0001847 227.3965 308.5863  1.00276875 40354
AMC-8 (GE-8)            
1 26639U 00081B   23013.71284937  .00000040  00000+0  00000+0 0  9997
2 26639   2.8918  87.5644 0005362 220.1631  94.0774  0.99150151 80786
ASTRA 2C                
1 26853U 01025A   23014.15377465 -.00000242  00000+0  00000+0 0  9997
2 26853   5.0826  77.3018 0003012 212.8663 166.0703  1.00273923 79047
NSS-7                   
1 27414U 02019A   23013.93313376 -.00000142  00000+0  00000+0 0  9990
2 27414   6.3908  69.5622 0002721 225.9960 133.4803  1.00270970 76024
NSS-6                   
1 27603U 02057A   23013.74440309  .00000127  00000+0  00000+0 0  9990
2 27603   2.1412  89.2368 0003693 207.6760 274.4904  1.00273026 73501
AMC-11 (GE-11)          
1 28252U 04017A   23013.68425927 -.00000029  00000+0  00000+0 0  9993
2 28252   0.0529 290.2931 0002761   0.2274 317.6000  1.00273252 68333
AMC-15                  
1 28446U 04041A   23014.32773921 -.00000067  00000+0  00000+0 0  9999
2 28446   0.0357 308.6111 0002415 349.0888 188.7573  1.00271576 66812
NSS-10 (AMC-12)         
1 28526U 05003A   23013.84354845 -.00000232  00000+0  00000+0 0  9997
2 28526   3.3047  85.1042 0003099 201.9771  92.1898  1.00271371 40610
ASTRA 1KR               
1 29055U 06012A   23013.71014726  .00000140  00000+0  00000+0 0  9990
2 29055   0.0750 272.3466 0004754 348.4760 126.9295  1.00273868 33181
AMC-18                  
1 29644U 06054B   23014.24556639 -.00000194  00000+0  00000+0 0  9993
2 29644   0.0162  52.6202 0002180 239.6306 186.5976  1.00271722 58998
ASTRA 1L                
1 31306U 07016A   23013.77202073  .00000141  00000+0  00000+0 0  9998
2 31306   0.0869 297.9539 0005230 352.6011 119.5464  1.00273953 32465
ASTRA 4A (SIRIUS 4)     
1 32299U 07057A   23013.81993785  .00000053  00000+0  00000+0 0  9999
2 32299   0.0130  39.9928 0002688 252.6062 120.3985  1.00271121 39126
AMC-21                  
1 33275U 08038B   23013.68452266  .00000057  00000+0  00000+0 0  9997
2 33275   0.0328 308.9816 0002503 354.9442 290.4937  1.00272848 52958
ASTRA 1M                
1 33436U 08057A   23013.77202073  .00000140  00000+0  00000+0 0  9999
2 33436   0.0307  88.7642 0001307 147.5938 173.7315  1.00272334 33188
CIEL-2                  
1 33453U 08063A   23014.28419966  .00000079  00000+0  00000+0 0  9994
2 33453   0.0127 110.9137 0003140 196.1199 139.9008  1.00272579 51599
NSS-9                   
1 33749U 09008A   23014.62142990  .00000093  00000+0  00000+0 0  9996
2 33749   0.0422 297.0436 0002187   1.5923 221.9627  1.00270159 51038
SES-7 (PROTOSTAR 2)     
1 34941U 09027A   23014.44524188 -.00000323  00000+0  00000+0 0  9992
2 34941   0.0238  68.4307 0002254 222.8587  90.8828  1.00272525 50083
NSS-12                  
1 36032U 09058A   23014.11785727  .00000093  00000+0  00000+0 0  9994
2 36032   0.0451 285.9306 0002836  10.9601 275.8395  1.00271033 48373
SES-1                   
1 36516U 10016A   23014.63415244 -.00000093  00000+0  00000+0 0  9999
2 36516   0.0275 312.6083 0002606 352.8813 295.6303  1.00271514 46609
ASTRA 3B                
1 36581U 10021A   23012.96299639  .00000156  00000+0  00000+0 0  9998
2 36581   0.0456  34.7681 0003008 259.9494 187.6310  1.00273790 46333
SES-3                   
1 37748U 11035A   23012.66850042 -.00000083  00000+0  00000+0 0  9998
2 37748   0.0198 349.5457 0002899 302.8438 317.1551  1.00272311 42042
ASTRA 1N                
1 37775U 11041A   23014.57093375  .00000141  00000+0  00000+0 0  9999
2 37775   0.0533  36.5915 0003369 316.1592 345.7318  1.00271845 41878
SES-2                   
1 37809U 11049A   23013.61733748 -.00000175  00000+0  00000+0 0  9992
2 37809   0.0097  31.5947 0002962 269.6608 306.8058  1.00271767 41411
QUETZSAT 1              
1 37826U 11054A   23014.50030896 -.00000220  00000+0  00000+0 0  9991
2 37826   0.0143 354.8145 0002678 298.0200 283.9689  1.00272651 41565
SES-4                   
1 38087U 12007A   23014.34752993 -.00000147  00000+0  00000+0 0  9999
2 38087   0.0217  44.6847 0002558 256.4499 275.5077  1.00271867 39951
SES-5                   
1 38652U 12036A   23014.56805730  .00000055  00000+0  00000+0 0  9998
2 38652   0.0574 291.8860 0001940 358.3055  33.0444  1.00271173 38538
ASTRA 2F                
1 38778U 12051A   23013.71206490  .00000170  00000+0  00000+0 0  9996
2 38778   0.1011 254.7416 0003529 356.5410 146.1780  1.00274240 28580
SES-6                   
1 39172U 13026A   23013.84354845 -.00000240  00000+0  00000+0 0  9999
2 39172   0.0360 308.3237 0002225 337.9266  89.9727  1.00270729 35183
O3B FM5                 
1 39188U 13031A   23013.16242219 -.00000011  00000+0  00000+0 0  9994
2 39188   0.0656   2.8889 0002893 294.7885  62.2916  5.00115422174444
O3B FM4                 
1 39189U 13031B   23013.41821933 -.00000010  00000+0  00000+0 0  9998
2 39189   0.0383 356.7664 0002832 301.1118  62.0916  5.00115940174486
O3B FM2                 
1 39190U 13031C   23013.50977218 -.00000010  00000+0  00000+0 0  9998
2 39190   0.0338 353.1396 0002808 302.9732  63.8567  5.00115197174547
O3B PFM                 
1 39191U 13031D   23013.53595201 -.00000010  00000+0  00000+0 0  9990
2 39191   0.0565   2.9893 0002745 289.3656  67.6146  5.00115910174104
ASTRA 2E                
1 39285U 13056A   23013.71206490  .00000171  00000+0  00000+0 0  9997
2 39285   0.0615 340.1789 0002363 311.9356 105.6291  1.00273286 33891
SES-8                   
1 39460U 13071A   23014.06924439 -.00000249  00000+0  00000+0 0  9995
2 39460   0.0512 252.3888 0000915  76.6107 264.2025  1.00272671 33339
ASTRA 5B                
1 39617U 14011B   23013.84354889  .00000175  00000+0  00000+0 0  9992
2 39617   0.0326   3.6863 0003897 293.6056 150.9105  1.00272340 32132
O3B FM3                 
1 40079U 14038A   23013.39081240 -.00000010  00000+0  00000+0 0  9992
2 40079   0.0459 358.5661 0004111 259.8684 101.5178  5.00116697150478
O3B FM7                 
1 40080U 14038B   23013.33697384 -.00000010  00000+0  00000+0 0  9990
2 40080   0.0440 353.3851 0003181 334.7205  31.8736  5.00115620155309
O3B FM6                 
1 40081U 14038C   23013.96305768 -.00000009  00000+0  00000+0 0  9990
2 40081   0.0450 359.2451 0002816 294.3286  66.3954  5.00115340155614
O3B FM8                 
1 40082U 14038D   23013.41722614 -.00000010  00000+0  00000+0 0  9996
2 40082   0.0419 359.7139 0002659 291.5408  68.7154  5.00115756155370
O3B FM10                
1 40348U 14083A   23013.44340800 -.00000010  00000+0  00000+0 0  9997
2 40348   0.0521   5.8507 0002724 287.2383  66.8808  5.00115236147328
O3B FM11                
1 40349U 14083B   23013.65670192 -.00000010  00000+0  00000+0 0  9991
2 40349   0.0540   1.0377 0003134 303.7232  55.2081  5.00115424147353
O3B FM12                
1 40350U 14083C   23013.68393659 -.00000010  00000+0  00000+0 0  9996
2 40350   0.0530   1.2910 0002938 292.8149  65.8619  5.00115332147368
O3B FM9                 
1 40351U 14083D   23013.51073706 -.00000010  00000+0  00000+0 0  9997
2 40351   0.0547   0.1283 0002760 294.4921  65.3494  5.00116146147503
ASTRA 2G                
1 40364U 14089A   23014.09424299  .00000171  00000+0  00000+0 0  9995
2 40364   0.0329   8.9137 0002685   7.1007 159.3865  1.00272225 29488
SES-9                   
1 41380U 16013A   23013.29761640 -.00000326  00000+0  00000+0 0  9991
2 41380   0.0379 280.9912 0000605  99.9747 306.9868  1.00270621 24896
SES-10                  
1 42432U 17017A   23013.53235934 -.00000252  00000+0  00000+0 0  9992
2 42432   0.0205  63.9636 0002774 224.1787 309.3403  1.00271600 21202
SES-15                  
1 42709U 17026A   23013.68452266  .00000080  00000+0  00000+0 0  9992
2 42709   0.0177   1.9472 0000298 305.6098 282.6012  1.00271024 21609
SES-11 (ECHOSTAR 105)   
1 42967U 17063A   23012.25105095 -.00000071  00000+0  00000+0 0  9997
2 42967   0.0608 274.7200 0002714  12.5406 169.6480  1.00271039 19173
SES-14                  
1 43175U 18012B   23012.26246956 -.00000260  00000+0  00000+0 0  9997
2 43175   0.0104 358.1155 0001080 298.9581 221.3927  1.00270148 18509
O3B FM15                
1 43231U 18024A   23013.57667303 -.00000010  00000+0  00000+0 0  9994
2 43231   0.0514   9.5617 0003078 283.2949  67.1094  5.00116269 88461
O3B FM16                
1 43232U 18024B   23013.63010540 -.00000010  00000+0  00000+0 0  9997
2 43232   0.0519  14.1265 0003083 279.3561  66.4835  5.00116040 88383
O3B FM14                
1 43233U 18024C   23013.46998886 -.00000010  00000+0  00000+0 0  9997
2 43233   0.0514  15.7780 0003048 281.1002  63.0891  5.00115475 88386
O3B FM13                
1 43234U 18024D   23013.72342038 -.00000010  00000+0  00000+0 0  9999
2 43234   0.0669   1.1993 0003865 290.0281  68.7299  5.00114977 88513
SES-12                  
1 43488U 18049A   23013.74703498 -.00000249  00000+0  00000+0 0  9994
2 43488   0.0116  32.7238 0002444 251.1447 192.9998  1.00270495 16888
O3B FM20                
1 44112U 19020A   23013.49667319 -.00000010  00000+0  00000+0 0  9998
2 44112   0.0513   5.7397 0003422 289.9797  64.2438  5.00115559 68996
O3B FM19                
1 44113U 19020B   23013.52353990 -.00000010  00000+0  00000+0 0  9990
2 44113   0.0713  12.4522 0002830 309.6957  37.8307  5.00115240 68879
O3B FM17                
1 44114U 19020C   23013.60394338 -.00000010  00000+0  00000+0 0  9991
2 44114   0.0353  21.3043 0003193 270.8551  67.8052  5.00115754 68969
O3B FM18                
1 44115U 19020D   23013.55042442 -.00000010  00000+0  00000+0 0  9992
2 44115   0.0518   5.5924 0002960 286.3060  68.0687  5.00115880 69084
SES-17                  
1 49332U 21095A   23010.19906868 -.00000257  00000+0  00000+0 0  9994
2 49332   0.0137  71.7688 0001207 220.3656 181.8779  1.00269269  5275
SES-22                  
1 52933U 22071A   23014.66942904  .00000110  00000+0  00000+0 0  9994
2 52933   0.0217  50.2304 0002372 243.7152 285.8975  1.00269896  2036
SES-20                  
1 53960U 22123A   23013.68582824 -.00000080  00000+0  00000+0 0  9992
2 53960   0.0623 118.0584 0000550 171.9096 326.6979  1.00268757  1005
SES-21                  
1 53961U 22123B   23013.69007714  .00000090  00000+0  00000+0 0  9994
2 53961   0.0176  44.8158 0000561 260.6541 284.8236  1.00268740  1020
O3B MPOWER-A F1         
1 54755U 22174A   23014.10919612  .00000037  00000+0  00000+0 0  9999
2 54755   7.8569 219.7595 1587644 254.6365  79.3111  6.76998264  2019
O3B MPOWER-A F2         
1 54756U 22174B   23014.07540280  .00000049  00000+0  00000+0 0  9990
2 54756   9.6152 220.0381 1870927 260.2564  78.2404  7.26306033  2048
